FENGYUN 1C DEB          
1 30136U 99025SR  17345.15958273  .00000202  00000-0  17548-3 0  9990
2 30136  98.5676  64.8970 0132048 251.9723 137.3379 13.92389131553935
